[
  {
    "id": "11240",
    "name": "ì†¡íŒŒêµ¬",
    "nameEn": "Songpa-gu",
    "baseYear": "2012",
    "groupId": "ì„œìš¸íŠ¹ë³„ì‹œ",
    "groupName": "ì„œìš¸íŠ¹ë³„ì‹œ",
    "placeName": "ë¡¯ë°ì›”ë“œ",
    "type": "ğŸ "
  },
  {
    "id": "31380",
    "name": "ì–‘í‰êµ°",
    "nameEn": "Yangpyeong-gun",
    "baseYear": "2012",
    "groupId": "ê²½ê¸°ë„",
    "groupName": "ê²½ê¸°ë„",
    "placeName": "ë‘ë¬¼ë¨¸ë¦¬",
    "type": "ğŸ"
  },
  {
    "id": "23320",
    "name": "ì˜¹ì§„êµ°",
    "nameEn": "Ongjin-gun",
    "baseYear": "2012",
    "groupId": "ì¸ì²œê´‘ì—­ì‹œ",
    "groupName": "ì¸ì²œê´‘ì—­ì‹œ",
    "placeName": "ìì›”ë„",
    "type": "ğŸ"
  },
  {
    "id": "32410",
    "name": "ì–‘ì–‘êµ°",
    "nameEn": "Yangyang-gun",
    "baseYear": "2012",
    "groupId": "ê°•ì›ë„",
    "groupName": "ê°•ì›ë„",
    "placeName": "ë‚™ì‚°ì‚¬",
    "type": "ğŸ"
  },
  {
    "id": "25050",
    "name": "ëŒ€ë•êµ¬",
    "nameEn": "Daedeok-gu",
    "baseYear": "2012",
    "groupId": "ëŒ€ì „ê´‘ì—­ì‹œ",
    "groupName": "ëŒ€ì „ê´‘ì—­ì‹œ",
    "placeName": "ê¸ˆê°•ë¡œí•˜ìŠ¤ëŒ€ì²­ê³µì›",
    "type": "ğŸŒ³"
  },
  {
    "id": "22310",
    "name": "ë‹¬ì„±êµ°",
    "nameEn": "Dalseong-gun",
    "baseYear": "2012",
    "groupId": "ëŒ€êµ¬ê´‘ì—­ì‹œ",
    "groupName": "ëŒ€êµ¬ê´‘ì—­ì‹œ",
    "placeName": "ì˜¥ì—°ì§€ ì†¡í•´ê³µì›",
    "type": "ğŸ"
  },
  {
    "id": "33390",
    "name": "ì¦í‰êµ°",
    "nameEn": "Jeungpyeonggun",
    "baseYear": "2012",
    "groupId": "ì¶©ì²­ë¶ë„",
    "groupName": "ì¶©ì²­ë¶ë„",
    "placeName": "ì¦í‰êµ°",
    "type": ""
  },
  {
    "id": "34380",
    "name": "íƒœì•ˆêµ°",
    "nameEn": "Taean-gun",
    "baseYear": "2012",
    "groupId": "ì¶©ì²­ë‚¨ë„",
    "groupName": "ì¶©ì²­ë‚¨ë„",
    "placeName": "íƒœì•ˆêµ°",
    "type": ""
  },
  {
    "id": "29010",
    "name": "ì„¸ì¢…ì‹œ",
    "nameEn": "Sejongsi",
    "baseYear": "2012",
    "groupId": "ì„¸ì¢…íŠ¹ë³„ìì¹˜ì‹œ",
    "groupName": "ì„¸ì¢…íŠ¹ë³„ìì¹˜ì‹œ",
    "placeName": "ì„¸ì¢…í˜¸ìˆ˜ê³µì›",
    "type": "ğŸ"
  },
  {
    "id": "35380",
    "name": "ë¶€ì•ˆêµ°",
    "nameEn": "Buan-gun",
    "baseYear": "2012",
    "groupId": "ì „ë¼ë¶ë„",
    "groupName": "ì „ë¼ë¶ë„",
    "placeName": "ì±„ì„ê°•",
    "type": "ğŸ"
  },
  {
    "id": "36030",
    "name": "ìˆœì²œì‹œ",
    "nameEn": "Suncheon-si",
    "baseYear": "2012",
    "groupId": "ì „ë¼ë‚¨ë„",
    "groupName": "ì „ë¼ë‚¨ë„",
    "placeName": "ìˆœì²œë§ŒìŠµì§€",
    "type": "ğŸ"
  },
  {
    "id": "37430",
    "name": "ìš¸ë¦‰êµ°",
    "nameEn": "Ulleung-gun",
    "baseYear": "2012",
    "groupId": "ê²½ìƒë¶ë„",
    "groupName": "ê²½ìƒë¶ë„",
    "placeName": "ìš¸ë¦‰êµ°",
    "type": ""
  },
  {
    "id": "38400",
    "name": "í•©ì²œêµ°",
    "nameEn": "Hapcheon-gun",
    "baseYear": "2012",
    "groupId": "ê²½ìƒë‚¨ë„",
    "groupName": "ê²½ìƒë‚¨ë„",
    "placeName": "í•´ì¸ì‚¬",
    "type": "ğŸ›"
  },
  {
    "id": "26310",
    "name": "ìš¸ì£¼êµ°",
    "nameEn": "Ulju-gun",
    "baseYear": "2012",
    "groupId": "ìš¸ì‚°ê´‘ì—­ì‹œ",
    "groupName": "ìš¸ì‚°ê´‘ì—­ì‹œ",
    "placeName": "ìš¸ì£¼êµ°",
    "type": ""
  },
  {
    "id": "24050",
    "name": "ê´‘ì‚°êµ¬",
    "nameEn": "Gwangsan-gu",
    "baseYear": "2012",
    "groupId": "ê´‘ì£¼ê´‘ì—­ì‹œ",
    "groupName": "ê´‘ì£¼ê´‘ì—­ì‹œ",
    "placeName": "ê´‘ì‚°êµ¬",
    "type": ""
  },
  {
    "id": "21090",
    "name": "í•´ìš´ëŒ€êµ¬",
    "nameEn": "Haeundae-gu",
    "baseYear": "2012",
    "groupId": "ë¶€ì‚°ê´‘ì—­ì‹œ",
    "groupName": "ë¶€ì‚°ê´‘ì—­ì‹œ",
    "placeName": "í•´ìš´ëŒ€",
    "type": "ğŸ–"
  },
  {
    "id": "39010",
    "name": "ì œì£¼ì‹œ",
    "nameEn": "Jeju-si",
    "baseYear": "2012",
    "groupId": "ì œì£¼íŠ¹ë³„ìì¹˜ë„",
    "groupName": "ì œì£¼íŠ¹ë³„ìì¹˜ë„",
    "placeName": "ì œì£¼ì‹œ",
    "type": "ğŸ"
  },
  {
    "id": "39020",
    "name": "ì„œê·€í¬ì‹œ",
    "nameEn": "Seogwipo-si",
    "baseYear": "2012",
    "groupId": "ì œì£¼íŠ¹ë³„ìì¹˜ë„",
    "groupName": "ì œì£¼íŠ¹ë³„ìì¹˜ë„",
    "placeName": "ì„œê·€í¬ì‹œ",
    "type": "ğŸ"
  },
  {
    "id": "38390",
    "name": "ê±°ì°½êµ°",
    "nameEn": "Geochang-gun",
    "baseYear": "2012",
    "groupId": "ê²½ìƒë‚¨ë„",
    "groupName": "ê²½ìƒë‚¨ë„",
    "placeName": "ìˆ˜ìŠ¹ëŒ€",
    "type": "ğŸ"
  },
  {
    "id": "38380",
    "name": "í•¨ì–‘êµ°",
    "nameEn": "Hamyang-gun",
    "baseYear": "2012",
    "groupId": "ê²½ìƒë‚¨ë„",
    "groupName": "ê²½ìƒë‚¨ë„",
    "placeName": "ìƒë¦¼ê³µì›",
    "type": "ğŸŒ³"
  },
  {
    "id": "38370",
    "name": "ì‚°ì²­êµ°",
    "nameEn": "Sancheong-gun",
    "baseYear": "2012",
    "groupId": "ê²½ìƒë‚¨ë„",
    "groupName": "ê²½ìƒë‚¨ë„",
    "placeName": "ì§€ë¦¬ì‚° ì²œì™•ë´‰",
    "type": "â›°"
  },
  {
    "id": "38360",
    "name": "í•˜ë™êµ°",
    "nameEn": "Hadong-gun",
    "baseYear": "2012",
    "groupId": "ê²½ìƒë‚¨ë„",
    "groupName": "ê²½ìƒë‚¨ë„",
    "placeName": "í™”ê°œì¥í„°",
    "type": "ğŸ¥¬"
  },
  {
    "id": "38350",
    "name": "ë‚¨í•´êµ°",
    "nameEn": "Namhae-gun",
    "baseYear": "2012",
    "groupId": "ê²½ìƒë‚¨ë„",
    "groupName": "ê²½ìƒë‚¨ë„",
    "placeName": "ë‹¤ë­ì´ë§ˆì„",
    "type": "ğŸ¡"
  },
  {
    "id": "38340",
    "name": "ê³ ì„±êµ°",
    "nameEn": "Goseong-gun",
    "baseYear": "2012",
    "groupId": "ê²½ìƒë‚¨ë„",
    "groupName": "ê²½ìƒë‚¨ë„",
    "placeName": "ì„¤ì•…ì‚° ìš¸ì‚°ë°”ìœ„",
    "type": "â›°"
  },
  {
    "id": "38330",
    "name": "ì°½ë…•êµ°",
    "nameEn": "Changnyeong-gun",
    "baseYear": "2012",
    "groupId": "ê²½ìƒë‚¨ë„",
    "groupName": "ê²½ìƒë‚¨ë„",
    "placeName": "í™”ì™•ì‚°",
    "type": "â›°"
  },
  {
    "id": "38320",
    "name": "í•¨ì•ˆêµ°",
    "nameEn": "Haman-gun",
    "baseYear": "2012",
    "groupId": "ê²½ìƒë‚¨ë„",
    "groupName": "ê²½ìƒë‚¨ë„",
    "placeName": "ì•…ì–‘ìƒíƒœê³µì›",
    "type": "ğŸŒ¸"
  },
  {
    "id": "38310",
    "name": "ì˜ë ¹êµ°",
    "nameEn": "Uiryeong-gun",
    "baseYear": "2012",
    "groupId": "ê²½ìƒë‚¨ë„",
    "groupName": "ê²½ìƒë‚¨ë„",
    "placeName": "í•œìš°ì‚°",
    "type": "â›°"
  },
  {
    "id": "38115",
    "name": "ì§„í•´êµ¬",
    "nameEn": "Jinhaegu",
    "baseYear": "2012",
    "groupId": "ê²½ìƒë‚¨ë„",
    "groupName": "ê²½ìƒë‚¨ë„",
    "placeName": "ì§„í•´í•´ì–‘ê³µì›",
    "type": "ğŸ"
  },
  {
    "id": "38114",
    "name": "ë§ˆì‚°íšŒì›êµ¬",
    "nameEn": "Masanhoewongu",
    "baseYear": "2012",
    "groupId": "ê²½ìƒë‚¨ë„",
    "groupName": "ê²½ìƒë‚¨ë„",
    "placeName": "ë´‰ì•”ìˆ˜ì›ì§€",
    "type": "ğŸ"
  },
  {
    "id": "38113",
    "name": "ë§ˆì‚°í•©í¬êµ¬",
    "nameEn": "Masanhappogu",
    "baseYear": "2012",
    "groupId": "ê²½ìƒë‚¨ë„",
    "groupName": "ê²½ìƒë‚¨ë„",
    "placeName": "ì½°ì´ê°•ì˜ë‹¤ë¦¬",
    "type": "ğŸ"
  },
  {
    "id": "38112",
    "name": "ì„±ì‚°êµ¬",
    "nameEn": "Seongsangu",
    "baseYear": "2012",
    "groupId": "ê²½ìƒë‚¨ë„",
    "groupName": "ê²½ìƒë‚¨ë„",
    "placeName": "ìš©ì§€ê³µì›(ìš©ì§€í˜¸ìˆ˜ê³µì›)",
    "type": "ğŸŒ³"
  },
  {
    "id": "38111",
    "name": "ì˜ì°½êµ¬",
    "nameEn": "Uichanggu",
    "baseYear": "2012",
    "groupId": "ê²½ìƒë‚¨ë„",
    "groupName": "ê²½ìƒë‚¨ë„",
    "placeName": "ì£¼ë‚¨ì €ìˆ˜ì§€",
    "type": "ğŸ"
  },
  {
    "id": "38100",
    "name": "ì–‘ì‚°ì‹œ",
    "nameEn": "Yangsan-si",
    "baseYear": "2012",
    "groupId": "ê²½ìƒë‚¨ë„",
    "groupName": "ê²½ìƒë‚¨ë„",
    "placeName": "ìˆœë§¤ì›",
    "type": "ğŸŒ¸"
  },
  {
    "id": "38090",
    "name": "ê±°ì œì‹œ",
    "nameEn": "Geoje-si",
    "baseYear": "2012",
    "groupId": "ê²½ìƒë‚¨ë„",
    "groupName": "ê²½ìƒë‚¨ë„",
    "placeName": "ë°”ëŒì˜ì–¸ë•",
    "type": "ğŸ"
  },
  {
    "id": "38080",
    "name": "ë°€ì–‘ì‹œ",
    "nameEn": "Miryang-si",
    "baseYear": "2012",
    "groupId": "ê²½ìƒë‚¨ë„",
    "groupName": "ê²½ìƒë‚¨ë„",
    "placeName": "ì˜ë‚¨ë£¨",
    "type": "ğŸ"
  },
  {
    "id": "38070",
    "name": "ê¹€í•´ì‹œ",
    "nameEn": "Gimhae-si",
    "baseYear": "2012",
    "groupId": "ê²½ìƒë‚¨ë„",
    "groupName": "ê²½ìƒë‚¨ë„",
    "placeName": "ì¥ìœ ëŒ€ì²­ê³„ê³¡",
    "type": "ğŸ"
  },
  {
    "id": "38060",
    "name": "ì‚¬ì²œì‹œ",
    "nameEn": "Sacheon-si",
    "baseYear": "2012",
    "groupId": "ê²½ìƒë‚¨ë„",
    "groupName": "ê²½ìƒë‚¨ë„",
    "placeName": "ì‚¬ì²œë°”ë‹¤ì¼€ì´ë¸”ì¹´",
    "type": "ğŸ"
  },
  {
    "id": "38050",
    "name": "í†µì˜ì‹œ",
    "nameEn": "Tongyeong-si",
    "baseYear": "2012",
    "groupId": "ê²½ìƒë‚¨ë„",
    "groupName": "ê²½ìƒë‚¨ë„",
    "placeName": "ìš•ì§€ë„",
    "type": "ğŸ"
  },
  {
    "id": "38030",
    "name": "ì§„ì£¼ì‹œ",
    "nameEn": "Jinju-si",
    "baseYear": "2012",
    "groupId": "ê²½ìƒë‚¨ë„",
    "groupName": "ê²½ìƒë‚¨ë„",
    "placeName": "ì§„ì£¼ì„±",
    "type": "ğŸ›"
  },
  {
    "id": "37420",
    "name": "ìš¸ì§„êµ°",
    "nameEn": "Uljin-gun",
    "baseYear": "2012",
    "groupId": "ê²½ìƒë¶ë„",
    "groupName": "ê²½ìƒë¶ë„",
    "placeName": "ìš¸ì§„êµ°",
    "type": ""
  },
  {
    "id": "37410",
    "name": "ë´‰í™”êµ°",
    "nameEn": "Bonghwa-gun",
    "baseYear": "2012",
    "groupId": "ê²½ìƒë¶ë„",
    "groupName": "ê²½ìƒë¶ë„",
    "placeName": "ì²­ëŸ‰ì‚°",
    "type": "â›°"
  },
  {
    "id": "37400",
    "name": "ì˜ˆì²œêµ°",
    "nameEn": "Yecheon-gun",
    "baseYear": "2012",
    "groupId": "ê²½ìƒë¶ë„",
    "groupName": "ê²½ìƒë¶ë„",
    "placeName": "í™”ë£¡í¬",
    "type": "ğŸ"
  },
  {
    "id": "37390",
    "name": "ì¹ ê³¡êµ°",
    "nameEn": "Chilgok-gun",
    "baseYear": "2012",
    "groupId": "ê²½ìƒë¶ë„",
    "groupName": "ê²½ìƒë¶ë„",
    "placeName": "ì¹ ê³¡êµ°",
    "type": ""
  },
  {
    "id": "37380",
    "name": "ì„±ì£¼êµ°",
    "nameEn": "Seongju-gun",
    "baseYear": "2012",
    "groupId": "ê²½ìƒë¶ë„",
    "groupName": "ê²½ìƒë¶ë„",
    "placeName": "ì„±ì£¼êµ°",
    "type": ""
  },
  {
    "id": "37370",
    "name": "ê³ ë ¹êµ°",
    "nameEn": "Goryeong-gun",
    "baseYear": "2012",
    "groupId": "ê²½ìƒë¶ë„",
    "groupName": "ê²½ìƒë¶ë„",
    "placeName": "ê³ ë ¹êµ°",
    "type": ""
  },
  {
    "id": "37360",
    "name": "ì²­ë„êµ°",
    "nameEn": "Cheongdo-gun",
    "baseYear": "2012",
    "groupId": "ê²½ìƒë¶ë„",
    "groupName": "ê²½ìƒë¶ë„",
    "placeName": "ì²­ë„êµ°",
    "type": ""
  },
  {
    "id": "37350",
    "name": "ì˜ë•êµ°",
    "nameEn": "Yeongdeok-gun",
    "baseYear": "2012",
    "groupId": "ê²½ìƒë¶ë„",
    "groupName": "ê²½ìƒë¶ë„",
    "placeName": "ê³ ë˜ë¶ˆí•´ìˆ˜ìš•ì¥",
    "type": "ğŸ–"
  },
  {
    "id": "37340",
    "name": "ì˜ì–‘êµ°",
    "nameEn": "Yeongyang-gun",
    "baseYear": "2012",
    "groupId": "ê²½ìƒë¶ë„",
    "groupName": "ê²½ìƒë¶ë„",
    "placeName": "ì˜ì–‘êµ°",
    "type": ""
  },
  {
    "id": "37330",
    "name": "ì²­ì†¡êµ°",
    "nameEn": "Cheongsong-gun",
    "baseYear": "2012",
    "groupId": "ê²½ìƒë¶ë„",
    "groupName": "ê²½ìƒë¶ë„",
    "placeName": "ì²­ì†¡êµ°",
    "type": ""
  },
  {
    "id": "37320",
    "name": "ì˜ì„±êµ°",
    "nameEn": "Uiseong-gun",
    "baseYear": "2012",
    "groupId": "ê²½ìƒë¶ë„",
    "groupName": "ê²½ìƒë¶ë„",
    "placeName": "ì˜ì„±êµ°",
    "type": ""
  },
  {
    "id": "37310",
    "name": "êµ°ìœ„êµ°",
    "nameEn": "Gunwi-gun",
    "baseYear": "2012",
    "groupId": "ê²½ìƒë¶ë„",
    "groupName": "ê²½ìƒë¶ë„",
    "placeName": "êµ°ìœ„êµ°",
    "type": ""
  },
  {
    "id": "37100",
    "name": "ê²½ì‚°ì‹œ",
    "nameEn": "Gyeongsan-si",
    "baseYear": "2012",
    "groupId": "ê²½ìƒë¶ë„",
    "groupName": "ê²½ìƒë¶ë„",
    "placeName": "ê²½ì‚°ì‹œ",
    "type": ""
  },
  {
    "id": "37090",
    "name": "ë¬¸ê²½ì‹œ",
    "nameEn": "Mungyeong-si",
    "baseYear": "2012",
    "groupId": "ê²½ìƒë¶ë„",
    "groupName": "ê²½ìƒë¶ë„",
    "placeName": "ë¬¸ê²½ì‹œ",
    "type": ""
  },
  {
    "id": "37080",
    "name": "ìƒì£¼ì‹œ",
    "nameEn": "Sangju-si",
    "baseYear": "2012",
    "groupId": "ê²½ìƒë¶ë„",
    "groupName": "ê²½ìƒë¶ë„",
    "placeName": "ìƒì£¼ì‹œ",
    "type": ""
  },
  {
    "id": "37070",
    "name": "ì˜ì²œì‹œ",
    "nameEn": "Yeongcheon-si",
    "baseYear": "2012",
    "groupId": "ê²½ìƒë¶ë„",
    "groupName": "ê²½ìƒë¶ë„",
    "placeName": "ì˜ì²œì‹œ",
    "type": ""
  },
  {
    "id": "37060",
    "name": "ì˜ì£¼ì‹œ",
    "nameEn": "Yeongju-si",
    "baseYear": "2012",
    "groupId": "ê²½ìƒë¶ë„",
    "groupName": "ê²½ìƒë¶ë„",
    "placeName": "ì˜ì£¼ì‹œ",
    "type": ""
  },
  {
    "id": "37050",
    "name": "êµ¬ë¯¸ì‹œ",
    "nameEn": "Gumi-si",
    "baseYear": "2012",
    "groupId": "ê²½ìƒë¶ë„",
    "groupName": "ê²½ìƒë¶ë„",
    "placeName": "êµ¬ë¯¸ì‹œ",
    "type": ""
  },
  {
    "id": "37040",
    "name": "ì•ˆë™ì‹œ",
    "nameEn": "Andong-si",
    "baseYear": "2012",
    "groupId": "ê²½ìƒë¶ë„",
    "groupName": "ê²½ìƒë¶ë„",
    "placeName": "ì•ˆë™ì‹œ",
    "type": ""
  },
  {
    "id": "37030",
    "name": "ê¹€ì²œì‹œ",
    "nameEn": "Gimcheon-si",
    "baseYear": "2012",
    "groupId": "ê²½ìƒë¶ë„",
    "groupName": "ê²½ìƒë¶ë„",
    "placeName": "ê¹€ì²œì‹œ",
    "type": ""
  },
  {
    "id": "37020",
    "name": "ê²½ì£¼ì‹œ",
    "nameEn": "Gyeongju-si",
    "baseYear": "2012",
    "groupId": "ê²½ìƒë¶ë„",
    "groupName": "ê²½ìƒë¶ë„",
    "placeName": "ë¶ˆêµ­ì‚¬",
    "type": "ğŸ"
  },
  {
    "id": "37012",
    "name": "ë¶êµ¬",
    "nameEn": "Buk-gu",
    "baseYear": "2012",
    "groupId": "ê²½ìƒë¶ë„",
    "groupName": "ê²½ìƒë¶ë„",
    "placeName": "ë¶êµ¬",
    "type": ""
  },
  {
    "id": "37011",
    "name": "ë‚¨êµ¬",
    "nameEn": "Nam-gu",
    "baseYear": "2012",
    "groupId": "ê²½ìƒë¶ë„",
    "groupName": "ê²½ìƒë¶ë„",
    "placeName": "ë‚¨êµ¬",
    "type": ""
  },
  {
    "id": "36480",
    "name": "ì‹ ì•ˆêµ°",
    "nameEn": "Sinan-gun",
    "baseYear": "2012",
    "groupId": "ì „ë¼ë‚¨ë„",
    "groupName": "ì „ë¼ë‚¨ë„",
    "placeName": "ì‹ ì•ˆêµ°",
    "type": ""
  },
  {
    "id": "36470",
    "name": "ì§„ë„êµ°",
    "nameEn": "Jindo-gun",
    "baseYear": "2012",
    "groupId": "ì „ë¼ë‚¨ë„",
    "groupName": "ì „ë¼ë‚¨ë„",
    "placeName": "ì§„ë„êµ°",
    "type": ""
  },
  {
    "id": "36460",
    "name": "ì™„ë„êµ°",
    "nameEn": "Wando-gun",
    "baseYear": "2012",
    "groupId": "ì „ë¼ë‚¨ë„",
    "groupName": "ì „ë¼ë‚¨ë„",
    "placeName": "ì™„ë„êµ°",
    "type": ""
  },
  {
    "id": "36450",
    "name": "ì¥ì„±êµ°",
    "nameEn": "Jangseong-gun",
    "baseYear": "2012",
    "groupId": "ì „ë¼ë‚¨ë„",
    "groupName": "ì „ë¼ë‚¨ë„",
    "placeName": "ì¥ì„±êµ°",
    "type": ""
  },
  {
    "id": "36440",
    "name": "ì˜ê´‘êµ°",
    "nameEn": "Yeonggwang-gun",
    "baseYear": "2012",
    "groupId": "ì „ë¼ë‚¨ë„",
    "groupName": "ì „ë¼ë‚¨ë„",
    "placeName": "ì˜ê´‘êµ°",
    "type": ""
  },
  {
    "id": "36430",
    "name": "í•¨í‰êµ°",
    "nameEn": "Hampyeong-gun",
    "baseYear": "2012",
    "groupId": "ì „ë¼ë‚¨ë„",
    "groupName": "ì „ë¼ë‚¨ë„",
    "placeName": "í•¨í‰êµ°",
    "type": ""
  },
  {
    "id": "36420",
    "name": "ë¬´ì•ˆêµ°",
    "nameEn": "Muan-gun",
    "baseYear": "2012",
    "groupId": "ì „ë¼ë‚¨ë„",
    "groupName": "ì „ë¼ë‚¨ë„",
    "placeName": "ë¬´ì•ˆêµ°",
    "type": ""
  },
  {
    "id": "36410",
    "name": "ì˜ì•”êµ°",
    "nameEn": "Yeongam-gun",
    "baseYear": "2012",
    "groupId": "ì „ë¼ë‚¨ë„",
    "groupName": "ì „ë¼ë‚¨ë„",
    "placeName": "ì˜ì•”êµ°",
    "type": ""
  },
  {
    "id": "36400",
    "name": "í•´ë‚¨êµ°",
    "nameEn": "Haenam-gun",
    "baseYear": "2012",
    "groupId": "ì „ë¼ë‚¨ë„",
    "groupName": "ì „ë¼ë‚¨ë„",
    "placeName": "í•´ë‚¨êµ°",
    "type": ""
  },
  {
    "id": "36390",
    "name": "ê°•ì§„êµ°",
    "nameEn": "Gangjin-gun",
    "baseYear": "2012",
    "groupId": "ì „ë¼ë‚¨ë„",
    "groupName": "ì „ë¼ë‚¨ë„",
    "placeName": "ê°•ì§„êµ°",
    "type": ""
  },
  {
    "id": "36380",
    "name": "ì¥í¥êµ°",
    "nameEn": "Jangheung-gun",
    "baseYear": "2012",
    "groupId": "ì „ë¼ë‚¨ë„",
    "groupName": "ì „ë¼ë‚¨ë„",
    "placeName": "ì¥í¥êµ°",
    "type": ""
  },
  {
    "id": "36370",
    "name": "í™”ìˆœêµ°",
    "nameEn": "Hwasun-gun",
    "baseYear": "2012",
    "groupId": "ì „ë¼ë‚¨ë„",
    "groupName": "ì „ë¼ë‚¨ë„",
    "placeName": "í™”ìˆœêµ°",
    "type": ""
  },
  {
    "id": "36360",
    "name": "ë³´ì„±êµ°",
    "nameEn": "Boseong-gun",
    "baseYear": "2012",
    "groupId": "ì „ë¼ë‚¨ë„",
    "groupName": "ì „ë¼ë‚¨ë„",
    "placeName": "ë³´ì„±êµ°",
    "type": ""
  },
  {
    "id": "36350",
    "name": "ê³ í¥êµ°",
    "nameEn": "Goheung-gun",
    "baseYear": "2012",
    "groupId": "ì „ë¼ë‚¨ë„",
    "groupName": "ì „ë¼ë‚¨ë„",
    "placeName": "ê³ í¥êµ°",
    "type": ""
  },
  {
    "id": "36330",
    "name": "êµ¬ë¡€êµ°",
    "nameEn": "Gurye-gun",
    "baseYear": "2012",
    "groupId": "ì „ë¼ë‚¨ë„",
    "groupName": "ì „ë¼ë‚¨ë„",
    "placeName": "ì§€ë¦¬ì‚° ë…¸ê³ ë‹¨",
    "type": "â›°"
  },
  {
    "id": "36320",
    "name": "ê³¡ì„±êµ°",
    "nameEn": "Gokseong-gun",
    "baseYear": "2012",
    "groupId": "ì „ë¼ë‚¨ë„",
    "groupName": "ì „ë¼ë‚¨ë„",
    "placeName": "ê³¡ì„±êµ°",
    "type": ""
  },
  {
    "id": "36310",
    "name": "ë‹´ì–‘êµ°",
    "nameEn": "Damyang-gun",
    "baseYear": "2012",
    "groupId": "ì „ë¼ë‚¨ë„",
    "groupName": "ì „ë¼ë‚¨ë„",
    "placeName": "ë‹´ì–‘êµ°",
    "type": ""
  },
  {
    "id": "36060",
    "name": "ê´‘ì–‘ì‹œ",
    "nameEn": "Gwangyang-si",
    "baseYear": "2012",
    "groupId": "ì „ë¼ë‚¨ë„",
    "groupName": "ì „ë¼ë‚¨ë„",
    "placeName": "ê´‘ì–‘ì‹œ",
    "type": ""
  },
  {
    "id": "36040",
    "name": "ë‚˜ì£¼ì‹œ",
    "nameEn": "Naju-si",
    "baseYear": "2012",
    "groupId": "ì „ë¼ë‚¨ë„",
    "groupName": "ì „ë¼ë‚¨ë„",
    "placeName": "ë‚˜ì£¼ì‹œ",
    "type": ""
  },
  {
    "id": "36020",
    "name": "ì—¬ìˆ˜ì‹œ",
    "nameEn": "Yeosu-si",
    "baseYear": "2012",
    "groupId": "ì „ë¼ë‚¨ë„",
    "groupName": "ì „ë¼ë‚¨ë„",
    "placeName": "ì˜¤ë™ë„",
    "type": "ğŸ"
  },
  {
    "id": "36010",
    "name": "ëª©í¬ì‹œ",
    "nameEn": "Mokpo-si",
    "baseYear": "2012",
    "groupId": "ì „ë¼ë‚¨ë„",
    "groupName": "ì „ë¼ë‚¨ë„",
    "placeName": "í‰í™”ê´‘ì¥",
    "type": "ğŸ"
  },
  {
    "id": "35370",
    "name": "ê³ ì°½êµ°",
    "nameEn": "Gochang-gun",
    "baseYear": "2012",
    "groupId": "ì „ë¼ë¶ë„",
    "groupName": "ì „ë¼ë¶ë„",
    "placeName": "ì„ ìš´ì‚¬",
    "type": "ğŸ›"
  },
  {
    "id": "35360",
    "name": "ìˆœì°½êµ°",
    "nameEn": "Sunchang-gun",
    "baseYear": "2012",
    "groupId": "ì „ë¼ë¶ë„",
    "groupName": "ì „ë¼ë¶ë„",
    "placeName": "ê°•ì²œì‚°",
    "type": "â›°"
  },
  {
    "id": "35350",
    "name": "ì„ì‹¤êµ°",
    "nameEn": "Imsil-gun",
    "baseYear": "2012",
    "groupId": "ì „ë¼ë¶ë„",
    "groupName": "ì „ë¼ë¶ë„",
    "placeName": "ì˜¥ì •í˜¸",
    "type": "ğŸ"
  },
  {
    "id": "35340",
    "name": "ì¥ìˆ˜êµ°",
    "nameEn": "Jangsu-gun",
    "baseYear": "2012",
    "groupId": "ì „ë¼ë¶ë„",
    "groupName": "ì „ë¼ë¶ë„",
    "placeName": "ì¥ì•ˆì‚°",
    "type": "â›°"
  },
  {
    "id": "35330",
    "name": "ë¬´ì£¼êµ°",
    "nameEn": "Muju-gun",
    "baseYear": "2012",
    "groupId": "ì „ë¼ë¶ë„",
    "groupName": "ì „ë¼ë¶ë„",
    "placeName": "ë•ìœ ì‚°",
    "type": "ğŸ”"
  },
  {
    "id": "35320",
    "name": "ì§„ì•ˆêµ°",
    "nameEn": "Jinan-gun",
    "baseYear": "2012",
    "groupId": "ì „ë¼ë¶ë„",
    "groupName": "ì „ë¼ë¶ë„",
    "placeName": "ë§ˆì´ì‚°",
    "type": "â›°"
  },
  {
    "id": "35310",
    "name": "ì™„ì£¼êµ°",
    "nameEn": "Wanju-gun",
    "baseYear": "2012",
    "groupId": "ì „ë¼ë¶ë„",
    "groupName": "ì „ë¼ë¶ë„",
    "placeName": "ê³ ì‚°ìì—°íœ´ì–‘ë¦¼",
    "type": "ğŸ"
  },
  {
    "id": "35060",
    "name": "ê¹€ì œì‹œ",
    "nameEn": "Gimje-si",
    "baseYear": "2012",
    "groupId": "ì „ë¼ë¶ë„",
    "groupName": "ì „ë¼ë¶ë„",
    "placeName": "ê¹€ì œê¸ˆì‚°ì‚¬",
    "type": "ğŸ›"
  },
  {
    "id": "35050",
    "name": "ë‚¨ì›ì‹œ",
    "nameEn": "Namwon-si",
    "baseYear": "2012",
    "groupId": "ì „ë¼ë¶ë„",
    "groupName": "ì „ë¼ë¶ë„",
    "placeName": "ì§€ë¦¬ì‚° ë°˜ì•¼ë´‰",
    "type": "â›°"
  },
  {
    "id": "35040",
    "name": "ì •ìì‹œ",
    "nameEn": "Jeongeup-si",
    "baseYear": "2012",
    "groupId": "ì „ë¼ë¶ë„",
    "groupName": "ì „ë¼ë¶ë„",
    "placeName": "ë‚´ì¥ì‚°",
    "type": "â›°"
  },
  {
    "id": "35030",
    "name": "ìµì‚°ì‹œ",
    "nameEn": "Iksan-si",
    "baseYear": "2012",
    "groupId": "ì „ë¼ë¶ë„",
    "groupName": "ì „ë¼ë¶ë„",
    "placeName": "ë¯¸ë¥µì‚¬ì§€",
    "type": "ğŸ›"
  },
  {
    "id": "35020",
    "name": "êµ°ì‚°ì‹œ",
    "nameEn": "Gunsan-si",
    "baseYear": "2012",
    "groupId": "ì „ë¼ë¶ë„",
    "groupName": "ì „ë¼ë¶ë„",
    "placeName": "ì„ ìœ ë„",
    "type": "ğŸ"
  },
  {
    "id": "35012",
    "name": "ì „ì£¼ì‹œë•ì§„êµ¬",
    "nameEn": "Jeonjusideokjingu",
    "baseYear": "2012",
    "groupId": "ì „ë¼ë¶ë„",
    "groupName": "ì „ë¼ë¶ë„",
    "placeName": "ì „ì£¼ë•ì§„ê³µì›",
    "type": "ğŸŒ³"
  },
  {
    "id": "35011",
    "name": "ì „ì£¼ì‹œì™„ì‚°êµ¬",
    "nameEn": "Jeonjusiwansangu",
    "baseYear": "2012",
    "groupId": "ì „ë¼ë¶ë„",
    "groupName": "ì „ë¼ë¶ë„",
    "placeName": "ì „ì£¼ í•œì˜¥ë§ˆì„",
    "type": "ğŸ¡"
  },
  {
    "id": "34370",
    "name": "ì˜ˆì‚°êµ°",
    "nameEn": "Yesan-gun",
    "baseYear": "2012",
    "groupId": "ì¶©ì²­ë‚¨ë„",
    "groupName": "ì¶©ì²­ë‚¨ë„",
    "placeName": "ì˜ˆì‚°êµ°",
    "type": ""
  },
  {
    "id": "34360",
    "name": "í™ì„±êµ°",
    "nameEn": "Hongseong-gun",
    "baseYear": "2012",
    "groupId": "ì¶©ì²­ë‚¨ë„",
    "groupName": "ì¶©ì²­ë‚¨ë„",
    "placeName": "í™ì„±êµ°",
    "type": ""
  },
  {
    "id": "34350",
    "name": "ì²­ì–‘êµ°",
    "nameEn": "Cheongyang-gun",
    "baseYear": "2012",
    "groupId": "ì¶©ì²­ë‚¨ë„",
    "groupName": "ì¶©ì²­ë‚¨ë„",
    "placeName": "ì²­ì–‘êµ°",
    "type": ""
  },
  {
    "id": "34340",
    "name": "ì„œì²œêµ°",
    "nameEn": "Seocheon-gun",
    "baseYear": "2012",
    "groupId": "ì¶©ì²­ë‚¨ë„",
    "groupName": "ì¶©ì²­ë‚¨ë„",
    "placeName": "ì„œì²œêµ°",
    "type": ""
  },
  {
    "id": "34330",
    "name": "ë¶€ì—¬êµ°",
    "nameEn": "Buyeo-gun",
    "baseYear": "2012",
    "groupId": "ì¶©ì²­ë‚¨ë„",
    "groupName": "ì¶©ì²­ë‚¨ë„",
    "placeName": "ë¶€ì—¬êµ°",
    "type": ""
  },
  {
    "id": "34310",
    "name": "ê¸ˆì‚°êµ°",
    "nameEn": "Geumsan-gun",
    "baseYear": "2012",
    "groupId": "ì¶©ì²­ë‚¨ë„",
    "groupName": "ì¶©ì²­ë‚¨ë„",
    "placeName": "ê¸ˆì‚°êµ°",
    "type": ""
  },
  {
    "id": "34080",
    "name": "ë‹¹ì§„ì‹œ",
    "nameEn": "Dangjinsi",
    "baseYear": "2012",
    "groupId": "ì¶©ì²­ë‚¨ë„",
    "groupName": "ì¶©ì²­ë‚¨ë„",
    "placeName": "ë‹¹ì§„ì‹œ",
    "type": ""
  },
  {
    "id": "34070",
    "name": "ê³„ë£¡ì‹œ",
    "nameEn": "Gyeryongsi",
    "baseYear": "2012",
    "groupId": "ì¶©ì²­ë‚¨ë„",
    "groupName": "ì¶©ì²­ë‚¨ë„",
    "placeName": "ê³„ë£¡ì‹œ",
    "type": ""
  },
  {
    "id": "34060",
    "name": "ë…¼ì‚°ì‹œ",
    "nameEn": "Nonsan-si",
    "baseYear": "2012",
    "groupId": "ì¶©ì²­ë‚¨ë„",
    "groupName": "ì¶©ì²­ë‚¨ë„",
    "placeName": "ë…¼ì‚°ì‹œ",
    "type": ""
  },
  {
    "id": "34050",
    "name": "ì„œì‚°ì‹œ",
    "nameEn": "Seosan-si",
    "baseYear": "2012",
    "groupId": "ì¶©ì²­ë‚¨ë„",
    "groupName": "ì¶©ì²­ë‚¨ë„",
    "placeName": "ì„œì‚°ì‹œ",
    "type": ""
  },
  {
    "id": "34040",
    "name": "ì•„ì‚°ì‹œ",
    "nameEn": "Asan-si",
    "baseYear": "2012",
    "groupId": "ì¶©ì²­ë‚¨ë„",
    "groupName": "ì¶©ì²­ë‚¨ë„",
    "placeName": "ì•„ì‚°ì‹œ",
    "type": ""
  },
  {
    "id": "34030",
    "name": "ë³´ë ¹ì‹œ",
    "nameEn": "Boryeong-si",
    "baseYear": "2012",
    "groupId": "ì¶©ì²­ë‚¨ë„",
    "groupName": "ì¶©ì²­ë‚¨ë„",
    "placeName": "ë³´ë ¹ì‹œ",
    "type": ""
  },
  {
    "id": "34020",
    "name": "ê³µì£¼ì‹œ",
    "nameEn": "Gongju-si",
    "baseYear": "2012",
    "groupId": "ì¶©ì²­ë‚¨ë„",
    "groupName": "ì¶©ì²­ë‚¨ë„",
    "placeName": "ê³µì£¼ì‹œ",
    "type": ""
  },
  {
    "id": "34012",
    "name": "ì²œì•ˆì‹œì„œë¶êµ¬",
    "nameEn": "Cheonansiseobukgu",
    "baseYear": "2012",
    "groupId": "ì¶©ì²­ë‚¨ë„",
    "groupName": "ì¶©ì²­ë‚¨ë„",
    "placeName": "ì²œì•ˆì‹œì„œë¶êµ¬",
    "type": ""
  },
  {
    "id": "34011",
    "name": "ì²œì•ˆì‹œë™ë‚¨êµ¬",
    "nameEn": "Cheonansidongnamgu",
    "baseYear": "2012",
    "groupId": "ì¶©ì²­ë‚¨ë„",
    "groupName": "ì¶©ì²­ë‚¨ë„",
    "placeName": "ì²œì•ˆì‹œë™ë‚¨êµ¬",
    "type": ""
  },
  {
    "id": "33380",
    "name": "ë‹¨ì–‘êµ°",
    "nameEn": "Danyang-gun",
    "baseYear": "2012",
    "groupId": "ì¶©ì²­ë¶ë„",
    "groupName": "ì¶©ì²­ë¶ë„",
    "placeName": "ë‹¨ì–‘êµ°",
    "type": ""
  },
  {
    "id": "33370",
    "name": "ìŒì„±êµ°",
    "nameEn": "Eumseong-gun",
    "baseYear": "2012",
    "groupId": "ì¶©ì²­ë¶ë„",
    "groupName": "ì¶©ì²­ë¶ë„",
    "placeName": "ìŒì„±êµ°",
    "type": ""
  },
  {
    "id": "33360",
    "name": "ê´´ì‚°êµ°",
    "nameEn": "Goesan-gun",
    "baseYear": "2012",
    "groupId": "ì¶©ì²­ë¶ë„",
    "groupName": "ì¶©ì²­ë¶ë„",
    "placeName": "ê´´ì‚°êµ°",
    "type": ""
  },
  {
    "id": "33350",
    "name": "ì§„ì²œêµ°",
    "nameEn": "Jincheon-gun",
    "baseYear": "2012",
    "groupId": "ì¶©ì²­ë¶ë„",
    "groupName": "ì¶©ì²­ë¶ë„",
    "placeName": "ì§„ì²œêµ°",
    "type": ""
  },
  {
    "id": "33340",
    "name": "ì˜ë™êµ°",
    "nameEn": "Yeongdong-gun",
    "baseYear": "2012",
    "groupId": "ì¶©ì²­ë¶ë„",
    "groupName": "ì¶©ì²­ë¶ë„",
    "placeName": "ì˜ë™êµ°",
    "type": ""
  },
  {
    "id": "33330",
    "name": "ì˜¥ì²œêµ°",
    "nameEn": "Okcheon-gun",
    "baseYear": "2012",
    "groupId": "ì¶©ì²­ë¶ë„",
    "groupName": "ì¶©ì²­ë¶ë„",
    "placeName": "ì˜¥ì²œêµ°",
    "type": ""
  },
  {
    "id": "33320",
    "name": "ë³´ì€êµ°",
    "nameEn": "Boeun-gun",
    "baseYear": "2012",
    "groupId": "ì¶©ì²­ë¶ë„",
    "groupName": "ì¶©ì²­ë¶ë„",
    "placeName": "ë³´ì€êµ°",
    "type": ""
  },
  {
    "id": "33310",
    "name": "ì²­ì›êµ°",
    "nameEn": "Cheongwon-gun",
    "baseYear": "2012",
    "groupId": "ì¶©ì²­ë¶ë„",
    "groupName": "ì¶©ì²­ë¶ë„",
    "placeName": "ì²­ì›êµ°",
    "type": ""
  },
  {
    "id": "33030",
    "name": "ì œì²œì‹œ",
    "nameEn": "Jecheon-si",
    "baseYear": "2012",
    "groupId": "ì¶©ì²­ë¶ë„",
    "groupName": "ì¶©ì²­ë¶ë„",
    "placeName": "ì œì²œì‹œ",
    "type": ""
  },
  {
    "id": "33020",
    "name": "ì¶©ì£¼ì‹œ",
    "nameEn": "Chungju-si",
    "baseYear": "2012",
    "groupId": "ì¶©ì²­ë¶ë„",
    "groupName": "ì¶©ì²­ë¶ë„",
    "placeName": "ì¶©ì£¼ì‹œ",
    "type": ""
  },
  {
    "id": "33012",
    "name": "ì²­ì£¼ì‹œí¥ë•êµ¬",
    "nameEn": "Cheongjusiheungdeokgu",
    "baseYear": "2012",
    "groupId": "ì¶©ì²­ë¶ë„",
    "groupName": "ì¶©ì²­ë¶ë„",
    "placeName": "ì²­ì£¼ì‹œí¥ë•êµ¬",
    "type": ""
  },
  {
    "id": "33011",
    "name": "ì²­ì£¼ì‹œìƒë‹¹êµ¬",
    "nameEn": "Cheongjusisangdanggu",
    "baseYear": "2012",
    "groupId": "ì¶©ì²­ë¶ë„",
    "groupName": "ì¶©ì²­ë¶ë„",
    "placeName": "ì²­ì£¼ì‹œìƒë‹¹êµ¬",
    "type": ""
  },
  {
    "id": "32400",
    "name": "ê³ ì„±êµ°",
    "nameEn": "Goseong-gun",
    "baseYear": "2012",
    "groupId": "ê°•ì›ë„",
    "groupName": "ê°•ì›ë„",
    "placeName": "ì•„ì•¼ì§„í•´ìˆ˜ìš•ì¥",
    "type": "ğŸ–"
  },
  {
    "id": "32390",
    "name": "ì¸ì œêµ°",
    "nameEn": "Inje-gun",
    "baseYear": "2012",
    "groupId": "ê°•ì›ë„",
    "groupName": "ê°•ì›ë„",
    "placeName": "ìì‘ë‚˜ë¬´ìˆ²",
    "type": "ğŸŒ²"
  },
  {
    "id": "32380",
    "name": "ì–‘êµ¬êµ°",
    "nameEn": "Yanggu-gun",
    "baseYear": "2012",
    "groupId": "ê°•ì›ë„",
    "groupName": "ê°•ì›ë„",
    "placeName": "ë‘íƒ€ì—°",
    "type": "ğŸ"
  },
  {
    "id": "32370",
    "name": "í™”ì²œêµ°",
    "nameEn": "Hwacheon-gun",
    "baseYear": "2012",
    "groupId": "ê°•ì›ë„",
    "groupName": "ê°•ì›ë„",
    "placeName": "ì¡°ê²½ì² ì²œë¬¸ëŒ€",
    "type": "â­"
  },
  {
    "id": "32360",
    "name": "ì² ì›êµ°",
    "nameEn": "Gongju-si",
    "baseYear": "2012",
    "groupId": "ê°•ì›ë„",
    "groupName": "ê°•ì›ë„",
    "placeName": "ê³ ì„ì •",
    "type": "ğŸ"
  },
  {
    "id": "32350",
    "name": "ì •ì„ êµ°",
    "nameEn": "Jeongseon-gun",
    "baseYear": "2012",
    "groupId": "ê°•ì›ë„",
    "groupName": "ê°•ì›ë„",
    "placeName": "ë³‘ë°©ì¹˜ìŠ¤ì¹´ì´ì›Œí¬",
    "type": "ğŸ"
  },
  {
    "id": "32340",
    "name": "í‰ì°½êµ°",
    "nameEn": "Pyeongchang-gun",
    "baseYear": "2012",
    "groupId": "ê°•ì›ë„",
    "groupName": "ê°•ì›ë„",
    "placeName": "ëŒ€ê´€ë ¹ì–‘ë–¼ëª©ì¥",
    "type": "ğŸ‘"
  },
  {
    "id": "32330",
    "name": "ì˜ì›”êµ°",
    "nameEn": "Yeongwol-gun",
    "baseYear": "2012",
    "groupId": "ê°•ì›ë„",
    "groupName": "ê°•ì›ë„",
    "placeName": "ì„ ëŒ",
    "type": "â›°"
  },
  {
    "id": "32320",
    "name": "íš¡ì„±êµ°",
    "nameEn": "Hoengseong-gun",
    "baseYear": "2012",
    "groupId": "ê°•ì›ë„",
    "groupName": "ê°•ì›ë„",
    "placeName": "ì²­íƒœì‚°ìì—°íœ´ì–‘ë¦¼",
    "type": "ğŸŒ³"
  },
  {
    "id": "32310",
    "name": "í™ì²œêµ°",
    "nameEn": "Hongcheon-gun",
    "baseYear": "2012",
    "groupId": "ê°•ì›ë„",
    "groupName": "ê°•ì›ë„",
    "placeName": "ì˜¤ì…˜ì›”ë“œ",
    "type": "ğŸ¢"
  },
  {
    "id": "32070",
    "name": "ì‚¼ì²™ì‹œ",
    "nameEn": "Samcheok-si",
    "baseYear": "2012",
    "groupId": "ê°•ì›ë„",
    "groupName": "ê°•ì›ë„",
    "placeName": "ì¥í˜¸í•­",
    "type": "ğŸ›³"
  },
  {
    "id": "32060",
    "name": "ì†ì´ˆì‹œ",
    "nameEn": "Sokcho-si",
    "baseYear": "2012",
    "groupId": "ê°•ì›ë„",
    "groupName": "ê°•ì›ë„",
    "placeName": "ì˜ê¸ˆì •",
    "type": "ğŸŒ…"
  },
  {
    "id": "32050",
    "name": "íƒœë°±ì‹œ",
    "nameEn": "Taebaek-si",
    "baseYear": "2012",
    "groupId": "ê°•ì›ë„",
    "groupName": "ê°•ì›ë„",
    "placeName": "íƒœë°±ì‚°",
    "type": "ğŸ”"
  },
  {
    "id": "32040",
    "name": "ë™í•´ì‹œ",
    "nameEn": "Donghae-si",
    "baseYear": "2012",
    "groupId": "ê°•ì›ë„",
    "groupName": "ê°•ì›ë„",
    "placeName": "ì¶”ì•”ì´›ëŒ€ë°”ìœ„",
    "type": "ğŸŒ…"
  },
  {
    "id": "32030",
    "name": "ê°•ë¦‰ì‹œ",
    "nameEn": "Gangneung-si",
    "baseYear": "2012",
    "groupId": "ê°•ì›ë„",
    "groupName": "ê°•ì›ë„",
    "placeName": "ê²½í¬ëŒ€",
    "type": "ğŸ–"
  },
  {
    "id": "32020",
    "name": "ì›ì£¼ì‹œ",
    "nameEn": "Wonju-si",
    "baseYear": "2012",
    "groupId": "ê°•ì›ë„",
    "groupName": "ê°•ì›ë„",
    "placeName": "ì¹˜ì•…ì‚°",
    "type": "â›°"
  },
  {
    "id": "32010",
    "name": "ì¶˜ì²œì‹œ",
    "nameEn": "Chuncheon-si",
    "baseYear": "2012",
    "groupId": "ê°•ì›ë„",
    "groupName": "ê°•ì›ë„",
    "placeName": "ë‚¨ì´ì„¬",
    "type": "ğŸ"
  },
  {
    "id": "31370",
    "name": "ê°€í‰êµ°",
    "nameEn": "Gapyeong-gun",
    "baseYear": "2012",
    "groupId": "ê²½ê¸°ë„",
    "groupName": "ê²½ê¸°ë„",
    "placeName": "ìë¼ì„¬",
    "type": "ğŸ"
  },
  {
    "id": "31350",
    "name": "ì—°ì²œêµ°",
    "nameEn": "Yeoncheon-gun",
    "baseYear": "2012",
    "groupId": "ê²½ê¸°ë„",
    "groupName": "ê²½ê¸°ë„",
    "placeName": "ì¬ì¸í­í¬",
    "type": "ğŸ"
  },
  {
    "id": "31320",
    "name": "ì—¬ì£¼êµ°",
    "nameEn": "Yeoju-gun",
    "baseYear": "2012",
    "groupId": "ê²½ê¸°ë„",
    "groupName": "ê²½ê¸°ë„",
    "placeName": "ì„¸ì¢…ëŒ€ì™•ë¦‰",
    "type": "ğŸ›"
  },
  {
    "id": "31270",
    "name": "í¬ì²œì‹œ",
    "nameEn": "Pocheonsi",
    "baseYear": "2012",
    "groupId": "ê²½ê¸°ë„",
    "groupName": "ê²½ê¸°ë„",
    "placeName": "ì‚°ì •í˜¸ìˆ˜",
    "type": "ğŸ"
  },
  {
    "id": "31260",
    "name": "ì–‘ì£¼ì‹œ",
    "nameEn": "Yangjusi",
    "baseYear": "2012",
    "groupId": "ê²½ê¸°ë„",
    "groupName": "ê²½ê¸°ë„",
    "placeName": "ì†¡ì¶”ê³„ê³¡",
    "type": "ğŸ"
  },
  {
    "id": "31250",
    "name": "ê´‘ì£¼ì‹œ",
    "nameEn": "Gwangju",
    "baseYear": "2012",
    "groupId": "ê²½ê¸°ë„",
    "groupName": "ê²½ê¸°ë„",
    "placeName": "í­ê·„ë§ˆì„",
    "type": "ğŸ¡"
  },
  {
    "id": "31240",
    "name": "í™”ì„±ì‹œ",
    "nameEn": "Hwaseongsi",
    "baseYear": "2012",
    "groupId": "ê²½ê¸°ë„",
    "groupName": "ê²½ê¸°ë„",
    "placeName": "ì œë¶€ë„",
    "type": "ğŸ"
  },
  {
    "id": "31230",
    "name": "ê¹€í¬ì‹œ",
    "nameEn": "Gimpo-si",
    "baseYear": "2012",
    "groupId": "ê²½ê¸°ë„",
    "groupName": "ê²½ê¸°ë„",
    "placeName": "ê¸€ë¦°ê³µì›",
    "type": "ğŸŒ³"
  },
  {
    "id": "31220",
    "name": "ì•ˆì„±ì‹œ",
    "nameEn": "Anseong-si",
    "baseYear": "2012",
    "groupId": "ê²½ê¸°ë„",
    "groupName": "ê²½ê¸°ë„",
    "placeName": "ì•ˆì„±ëª©ì¥",
    "type": "ğŸ‘"
  },
  {
    "id": "31210",
    "name": "ì´ì²œì‹œ",
    "nameEn": "Icheon-si",
    "baseYear": "2012",
    "groupId": "ê²½ê¸°ë„",
    "groupName": "ê²½ê¸°ë„",
    "placeName": "ë³„ë¹›ì •ì› ìš°ì£¼",
    "type": "ğŸŒ "
  },
  {
    "id": "31200",
    "name": "íŒŒì£¼ì‹œ",
    "nameEn": "Paju-si",
    "baseYear": "2012",
    "groupId": "ê²½ê¸°ë„",
    "groupName": "ê²½ê¸°ë„",
    "placeName": "ë§ˆì¥í˜¸ìˆ˜ ì¶œë ë‹¤ë¦¬",
    "type": "ğŸ"
  },
  {
    "id": "31193",
    "name": "ìš©ì¸ì‹œìˆ˜ì§€êµ¬",
    "nameEn": "Yonginsisujigu",
    "baseYear": "2012",
    "groupId": "ê²½ê¸°ë„",
    "groupName": "ê²½ê¸°ë„",
    "placeName": "ìºë¦¬ë¹„ì•ˆë² ì´",
    "type": "ğŸ–"
  },
  {
    "id": "31192",
    "name": "ìš©ì¸ì‹œê¸°í¥êµ¬",
    "nameEn": "Yonginsigiheunggu",
    "baseYear": "2012",
    "groupId": "ê²½ê¸°ë„",
    "groupName": "ê²½ê¸°ë„",
    "placeName": "ìš©ì¸ìì—°íœ´ì–‘ë¦¼",
    "type": "ğŸŒ³"
  },
  {
    "id": "31191",
    "name": "ìš©ì¸ì‹œì²˜ì¸êµ¬",
    "nameEn": "Yonginsicheoingu",
    "baseYear": "2012",
    "groupId": "ê²½ê¸°ë„",
    "groupName": "ê²½ê¸°ë„",
    "placeName": "ì—ë²„ëœë“œ",
    "type": "ğŸ¢"
  },
  {
    "id": "31180",
    "name": "í•˜ë‚¨ì‹œ",
    "nameEn": "Hanam-si",
    "baseYear": "2012",
    "groupId": "ê²½ê¸°ë„",
    "groupName": "ê²½ê¸°ë„",
    "placeName": "ë¯¸ì‚¬ê²½ì •ê³µì›",
    "type": "ğŸ"
  },
  {
    "id": "31170",
    "name": "ì˜ì™•ì‹œ",
    "nameEn": "Uiwang-si",
    "baseYear": "2012",
    "groupId": "ê²½ê¸°ë„",
    "groupName": "ê²½ê¸°ë„",
    "placeName": "ë°±ìš´í˜¸ìˆ˜",
    "type": "ğŸ"
  },
  {
    "id": "31160",
    "name": "êµ°í¬ì‹œ",
    "nameEn": "Gunpo-si",
    "baseYear": "2012",
    "groupId": "ê²½ê¸°ë„",
    "groupName": "ê²½ê¸°ë„",
    "placeName": "ìˆ˜ë¦¬ì‚°",
    "type": "â›°"
  },
  {
    "id": "31150",
    "name": "ì‹œí¥ì‹œ",
    "nameEn": "Siheung-si",
    "baseYear": "2012",
    "groupId": "ê²½ê¸°ë„",
    "groupName": "ê²½ê¸°ë„",
    "placeName": "ê°¯ê³¨ìƒíƒœê³µì›",
    "type": "ğŸ"
  },
  {
    "id": "31140",
    "name": "ì˜¤ì‚°ì‹œ",
    "nameEn": "Osan-si",
    "baseYear": "2012",
    "groupId": "ê²½ê¸°ë„",
    "groupName": "ê²½ê¸°ë„",
    "placeName": "ë¬¼í–¥ê¸°ìˆ˜ëª©ì›",
    "type": "ğŸŒ³"
  },
  {
    "id": "31130",
    "name": "ë‚¨ì–‘ì£¼ì‹œ",
    "nameEn": "Namyangju-si",
    "baseYear": "2012",
    "groupId": "ê²½ê¸°ë„",
    "groupName": "ê²½ê¸°ë„",
    "placeName": "ë¬¼ì˜ì •ì›",
    "type": "ğŸ"
  },
  {
    "id": "31120",
    "name": "êµ¬ë¦¬ì‹œ",
    "nameEn": "Guri-si",
    "baseYear": "2012",
    "groupId": "ê²½ê¸°ë„",
    "groupName": "ê²½ê¸°ë„",
    "placeName": "ì•„ì°¨ì‚°",
    "type": "â›°"
  },
  {
    "id": "31110",
    "name": "ê³¼ì²œì‹œ",
    "nameEn": "Gwacheon-si",
    "baseYear": "2012",
    "groupId": "ê²½ê¸°ë„",
    "groupName": "ê²½ê¸°ë„",
    "placeName": "ì„œìš¸ëŒ€ê³µì›",
    "type": "ğŸ¡"
  },
  {
    "id": "31104",
    "name": "ê³ ì–‘ì‹œì¼ì‚°ì„œêµ¬",
    "nameEn": "Goyangsiilsanseogu",
    "baseYear": "2012",
    "groupId": "ê²½ê¸°ë„",
    "groupName": "ê²½ê¸°ë„",
    "placeName": "ê³ ì–‘ìƒíƒœê³µì›",
    "type": "ğŸ"
  },
  {
    "id": "31103",
    "name": "ê³ ì–‘ì‹œì¼ì‚°ë™êµ¬",
    "nameEn": "Goyangsiilsandonggu",
    "baseYear": "2012",
    "groupId": "ê²½ê¸°ë„",
    "groupName": "ê²½ê¸°ë„",
    "placeName": "ì¼ì‚°í˜¸ìˆ˜ê³µì›",
    "type": "ğŸ"
  },
  {
    "id": "31101",
    "name": "ê³ ì–‘ì‹œë•ì–‘êµ¬",
    "nameEn": "Goyangsideogyanggu",
    "baseYear": "2012",
    "groupId": "ê²½ê¸°ë„",
    "groupName": "ê²½ê¸°ë„",
    "placeName": "í–‰ì£¼ì‚°ì„±",
    "type": "ğŸ"
  },
  {
    "id": "31092",
    "name": "ì•ˆì‚°ì‹œë‹¨ì›êµ¬",
    "nameEn": "Ansansidanwongu",
    "baseYear": "2012",
    "groupId": "ê²½ê¸°ë„",
    "groupName": "ê²½ê¸°ë„",
    "placeName": "ì•ˆì‚°í˜¸ìˆ˜ê³µì›",
    "type": "ğŸ"
  },
  {
    "id": "31091",
    "name": "ì•ˆì‚°ì‹œìƒë¡êµ¬",
    "nameEn": "Ansansisangnokgu",
    "baseYear": "2012",
    "groupId": "ê²½ê¸°ë„",
    "groupName": "ê²½ê¸°ë„",
    "placeName": "ë°©ì•„ë¨¸ë¦¬í•´ìˆ˜ìš•ì¥",
    "type": "ğŸ–"
  },
  {
    "id": "31080",
    "name": "ë™ë‘ì²œì‹œ",
    "nameEn": "Dongducheon-si",
    "baseYear": "2012",
    "groupId": "ê²½ê¸°ë„",
    "groupName": "ê²½ê¸°ë„",
    "placeName": "ì†Œìš”ì‚°",
    "type": "ğŸ"
  },
  {
    "id": "31070",
    "name": "í‰íƒì‹œ",
    "nameEn": "Pyeongtaek-si",
    "baseYear": "2012",
    "groupId": "ê²½ê¸°ë„",
    "groupName": "ê²½ê¸°ë„",
    "placeName": "ë°”ëŒìƒˆë§ˆì„",
    "type": "ğŸ¡"
  },
  {
    "id": "31060",
    "name": "ê´‘ëª…ì‹œ",
    "nameEn": "Gwangmyeong-si",
    "baseYear": "2012",
    "groupId": "ê²½ê¸°ë„",
    "groupName": "ê²½ê¸°ë„",
    "placeName": "ê´‘ëª…ë™êµ´",
    "type": "ğŸ"
  },
  {
    "id": "31053",
    "name": "ë¶€ì²œì‹œì˜¤ì •êµ¬",
    "nameEn": "Bucheonsiojeonggu",
    "baseYear": "2012",
    "groupId": "ê²½ê¸°ë„",
    "groupName": "ê²½ê¸°ë„",
    "placeName": "ìƒë™í˜¸ìˆ˜ê³µì›",
    "type": "ğŸ"
  },
  {
    "id": "31052",
    "name": "ë¶€ì²œì‹œì†Œì‚¬êµ¬",
    "nameEn": "Bucheonsisosagu",
    "baseYear": "2012",
    "groupId": "ê²½ê¸°ë„",
    "groupName": "ê²½ê¸°ë„",
    "placeName": "ë¶€ì²œìì—°ìƒíƒœê³µì›",
    "type": "ğŸ"
  },
  {
    "id": "31051",
    "name": "ë¶€ì²œì‹œì›ë¯¸êµ¬",
    "nameEn": "Bucheonsiwonmigu",
    "baseYear": "2012",
    "groupId": "ê²½ê¸°ë„",
    "groupName": "ê²½ê¸°ë„",
    "placeName": "ë¶€ì²œë°±ë§Œì†¡ì´ì¥ë¯¸ì›",
    "type": "ğŸ"
  },
  {
    "id": "31042",
    "name": "ì•ˆì–‘ì‹œë™ì•ˆêµ¬",
    "nameEn": "Anyangsidongangu",
    "baseYear": "2012",
    "groupId": "ê²½ê¸°ë„",
    "groupName": "ê²½ê¸°ë„",
    "placeName": "ë³‘ëª©ì•ˆì‹œë¯¼ê³µì›",
    "type": "ğŸ"
  },
  {
    "id": "31041",
    "name": "ì•ˆì–‘ì‹œë§Œì•ˆêµ¬",
    "nameEn": "Anyangsimanangu",
    "baseYear": "2012",
    "groupId": "ê²½ê¸°ë„",
    "groupName": "ê²½ê¸°ë„",
    "placeName": "ì‚¼ë§‰ì‚¬ê³„ê³¡",
    "type": "ğŸ"
  },
  {
    "id": "31030",
    "name": "ì˜ì •ë¶€ì‹œ",
    "nameEn": "Uijeongbu-si",
    "baseYear": "2012",
    "groupId": "ê²½ê¸°ë„",
    "groupName": "ê²½ê¸°ë„",
    "placeName": "ì§ë™ê·¼ë¦°ê³µì›",
    "type": "ğŸŒ³"
  },
  {
    "id": "31023",
    "name": "ì„±ë‚¨ì‹œë¶„ë‹¹êµ¬",
    "nameEn": "Seongnamsibundanggu",
    "baseYear": "2012",
    "groupId": "ê²½ê¸°ë„",
    "groupName": "ê²½ê¸°ë„",
    "placeName": "ìœ¨ë™ê³µì›",
    "type": "ğŸ"
  },
  {
    "id": "31022",
    "name": "ì„±ë‚¨ì‹œì¤‘ì›êµ¬",
    "nameEn": "Seongnamsijungwongu",
    "baseYear": "2012",
    "groupId": "ê²½ê¸°ë„",
    "groupName": "ê²½ê¸°ë„",
    "placeName": "ë¶„ë‹¹ì¤‘ì•™ê³µì›",
    "type": "ğŸ"
  },
  {
    "id": "31021",
    "name": "ì„±ë‚¨ì‹œìˆ˜ì •êµ¬",
    "nameEn": "Seongnamsisujeonggu",
    "baseYear": "2012",
    "groupId": "ê²½ê¸°ë„",
    "groupName": "ê²½ê¸°ë„",
    "placeName": "ì •ìë™ì¹´í˜ê³¨ëª©",
    "type": "â˜•"
  },
  {
    "id": "31014",
    "name": "ìˆ˜ì›ì‹œì˜í†µêµ¬",
    "nameEn": "Suwonsiyeongtonggu",
    "baseYear": "2012",
    "groupId": "ê²½ê¸°ë„",
    "groupName": "ê²½ê¸°ë„",
    "placeName": "ê´‘êµì €ìˆ˜ì§€",
    "type": "ğŸ"
  },
  {
    "id": "31013",
    "name": "ìˆ˜ì›ì‹œíŒ”ë‹¬êµ¬",
    "nameEn": "Suwonsipaldalgu",
    "baseYear": "2012",
    "groupId": "ê²½ê¸°ë„",
    "groupName": "ê²½ê¸°ë„",
    "placeName": "ë§Œì„ê³µì›",
    "type": "ğŸ"
  },
  {
    "id": "31012",
    "name": "ìˆ˜ì›ì‹œê¶Œì„ êµ¬",
    "nameEn": "Suwonsigwonseongu",
    "baseYear": "2012",
    "groupId": "ê²½ê¸°ë„",
    "groupName": "ê²½ê¸°ë„",
    "placeName": "ë°©í™”ìˆ˜ë¥˜ì •",
    "type": "ğŸ"
  },
  {
    "id": "31011",
    "name": "ìˆ˜ì›ì‹œì¥ì•ˆêµ¬",
    "nameEn": "Suwonsijangangu",
    "baseYear": "2012",
    "groupId": "ê²½ê¸°ë„",
    "groupName": "ê²½ê¸°ë„",
    "placeName": "ìˆ˜ì›í™”ì„±",
    "type": "ğŸ›"
  },
  {
    "id": "26040",
    "name": "ë¶êµ¬",
    "nameEn": "Buk-gu",
    "baseYear": "2012",
    "groupId": "ìš¸ì‚°ê´‘ì—­ì‹œ",
    "groupName": "ìš¸ì‚°ê´‘ì—­ì‹œ",
    "placeName": "ë¶êµ¬",
    "type": ""
  },
  {
    "id": "26030",
    "name": "ë™êµ¬",
    "nameEn": "Dong-gu",
    "baseYear": "2012",
    "groupId": "ìš¸ì‚°ê´‘ì—­ì‹œ",
    "groupName": "ìš¸ì‚°ê´‘ì—­ì‹œ",
    "placeName": "ë™êµ¬",
    "type": ""
  },
  {
    "id": "26020",
    "name": "ë‚¨êµ¬",
    "nameEn": "Nam-gu",
    "baseYear": "2012",
    "groupId": "ìš¸ì‚°ê´‘ì—­ì‹œ",
    "groupName": "ìš¸ì‚°ê´‘ì—­ì‹œ",
    "placeName": "ë‚¨êµ¬",
    "type": ""
  },
  {
    "id": "26010",
    "name": "ì¤‘êµ¬",
    "nameEn": "Jung-gu",
    "baseYear": "2012",
    "groupId": "ìš¸ì‚°ê´‘ì—­ì‹œ",
    "groupName": "ìš¸ì‚°ê´‘ì—­ì‹œ",
    "placeName": "ì¤‘êµ¬",
    "type": ""
  },
  {
    "id": "25040",
    "name": "ìœ ì„±êµ¬",
    "nameEn": "Yuseong-gu",
    "baseYear": "2012",
    "groupId": "ëŒ€ì „ê´‘ì—­ì‹œ",
    "groupName": "ëŒ€ì „ê´‘ì—­ì‹œ",
    "placeName": "ì¹´ì´ìŠ¤íŠ¸ëŒ€í•™êµ",
    "type": "ğŸ¢"
  },
  {
    "id": "25030",
    "name": "ì„œêµ¬",
    "nameEn": "Seo-gu",
    "baseYear": "2012",
    "groupId": "ëŒ€ì „ê´‘ì—­ì‹œ",
    "groupName": "ëŒ€ì „ê´‘ì—­ì‹œ",
    "placeName": "ì¥íƒœì‚°ìì—°íœ´ì–‘ë¦¼",
    "type": "ğŸŒ²"
  },
  {
    "id": "25020",
    "name": "ì¤‘êµ¬",
    "nameEn": "Jung-gu",
    "baseYear": "2012",
    "groupId": "ëŒ€ì „ê´‘ì—­ì‹œ",
    "groupName": "ëŒ€ì „ê´‘ì—­ì‹œ",
    "placeName": "í•œë°­ìˆ˜ëª©ì›",
    "type": "ğŸŒ³"
  },
  {
    "id": "25010",
    "name": "ë™êµ¬",
    "nameEn": "Dong-gu",
    "baseYear": "2012",
    "groupId": "ëŒ€ì „ê´‘ì—­ì‹œ",
    "groupName": "ëŒ€ì „ê´‘ì—­ì‹œ",
    "placeName": "êµ­ë¦½ì¤‘ì•™ê³¼í•™ê´€",
    "type": "ğŸ¢"
  },
  {
    "id": "24040",
    "name": "ë¶êµ¬",
    "nameEn": "Buk-gu",
    "baseYear": "2012",
    "groupId": "ê´‘ì£¼ê´‘ì—­ì‹œ",
    "groupName": "ê´‘ì£¼ê´‘ì—­ì‹œ",
    "placeName": "ë¶êµ¬",
    "type": ""
  },
  {
    "id": "24030",
    "name": "ë‚¨êµ¬",
    "nameEn": "Nam-gu",
    "baseYear": "2012",
    "groupId": "ê´‘ì£¼ê´‘ì—­ì‹œ",
    "groupName": "ê´‘ì£¼ê´‘ì—­ì‹œ",
    "placeName": "ë‚¨êµ¬",
    "type": ""
  },
  {
    "id": "24020",
    "name": "ì„œêµ¬",
    "nameEn": "Seo-gu",
    "baseYear": "2012",
    "groupId": "ê´‘ì£¼ê´‘ì—­ì‹œ",
    "groupName": "ê´‘ì£¼ê´‘ì—­ì‹œ",
    "placeName": "ì„œêµ¬",
    "type": ""
  },
  {
    "id": "24010",
    "name": "ë™êµ¬",
    "nameEn": "Dong-gu",
    "baseYear": "2012",
    "groupId": "ê´‘ì£¼ê´‘ì—­ì‹œ",
    "groupName": "ê´‘ì£¼ê´‘ì—­ì‹œ",
    "placeName": "ë™êµ¬",
    "type": ""
  },
  {
    "id": "23310",
    "name": "ê°•í™”êµ°",
    "nameEn": "Ganghwa-gun",
    "baseYear": "2012",
    "groupId": "ì¸ì²œê´‘ì—­ì‹œ",
    "groupName": "ì¸ì²œê´‘ì—­ì‹œ",
    "placeName": "ë™ë§‰í•´ë³€",
    "type": "ğŸ–"
  },
  {
    "id": "23080",
    "name": "ì„œêµ¬",
    "nameEn": "Seo-gu",
    "baseYear": "2012",
    "groupId": "ì¸ì²œê´‘ì—­ì‹œ",
    "groupName": "ì¸ì²œê´‘ì—­ì‹œ",
    "placeName": "ì²­ë¼í˜¸ìˆ˜ê³µì›",
    "type": "ğŸŒ³"
  },
  {
    "id": "23070",
    "name": "ê³„ì–‘êµ¬",
    "nameEn": "Gyeyang-gu",
    "baseYear": "2012",
    "groupId": "ì¸ì²œê´‘ì—­ì‹œ",
    "groupName": "ì¸ì²œê´‘ì—­ì‹œ",
    "placeName": "ê³„ì–‘ì‚°",
    "type": "â›°"
  },
  {
    "id": "23060",
    "name": "ë¶€í‰êµ¬",
    "nameEn": "Bupyeong-gu",
    "baseYear": "2012",
    "groupId": "ì¸ì²œê´‘ì—­ì‹œ",
    "groupName": "ì¸ì²œê´‘ì—­ì‹œ",
    "placeName": "ë¶€í‰ê³µì›",
    "type": "ğŸŒ³"
  },
  {
    "id": "23050",
    "name": "ë‚¨ë™êµ¬",
    "nameEn": "Namdong-gu",
    "baseYear": "2012",
    "groupId": "ì¸ì²œê´‘ì—­ì‹œ",
    "groupName": "ì¸ì²œê´‘ì—­ì‹œ",
    "placeName": "ì¸ì²œëŒ€ê³µì›",
    "type": "ğŸŒ³"
  },
  {
    "id": "23040",
    "name": "ì—°ìˆ˜êµ¬",
    "nameEn": "Yeonsu-gu",
    "baseYear": "2012",
    "groupId": "ì¸ì²œê´‘ì—­ì‹œ",
    "groupName": "ì¸ì²œê´‘ì—­ì‹œ",
    "placeName": "ì†¡ë„ ì„¼íŠ¸ëŸ´íŒŒí¬",
    "type": "ğŸ™"
  },
  {
    "id": "23030",
    "name": "ë‚¨êµ¬",
    "nameEn": "Nam-gu",
    "baseYear": "2012",
    "groupId": "ì¸ì²œê´‘ì—­ì‹œ",
    "groupName": "ì¸ì²œê´‘ì—­ì‹œ",
    "placeName": "ë¬¸í•™ì‚°",
    "type": "â›°"
  },
  {
    "id": "23020",
    "name": "ë™êµ¬",
    "nameEn": "Dong-gu",
    "baseYear": "2012",
    "groupId": "ì¸ì²œê´‘ì—­ì‹œ",
    "groupName": "ì¸ì²œê´‘ì—­ì‹œ",
    "placeName": "ìˆ˜ë„êµ­ì‚° ë‹¬ë™ë„¤ë°•ë¬¼ê´€",
    "type": "ğŸ›"
  },
  {
    "id": "23010",
    "name": "ì¤‘êµ¬",
    "nameEn": "Jung-gu",
    "baseYear": "2012",
    "groupId": "ì¸ì²œê´‘ì—­ì‹œ",
    "groupName": "ì¸ì²œê´‘ì—­ì‹œ",
    "placeName": "ì„ì™•ë¦¬í•´ìˆ˜ìš•ì¥",
    "type": "ğŸ–"
  },
  {
    "id": "22070",
    "name": "ë‹¬ì„œêµ¬",
    "nameEn": "Dalseo-gu",
    "baseYear": "2012",
    "groupId": "ëŒ€êµ¬ê´‘ì—­ì‹œ",
    "groupName": "ëŒ€êµ¬ê´‘ì—­ì‹œ",
    "placeName": "ëŒ€êµ¬ìˆ˜ëª©ì›",
    "type": "ğŸŒ³"
  },
  {
    "id": "22060",
    "name": "ìˆ˜ì„±êµ¬",
    "nameEn": "Suseong-gu",
    "baseYear": "2012",
    "groupId": "ëŒ€êµ¬ê´‘ì—­ì‹œ",
    "groupName": "ëŒ€êµ¬ê´‘ì—­ì‹œ",
    "placeName": "ëŒ€êµ¬ë¯¸ìˆ ê´€",
    "type": "ğŸ›"
  },
  {
    "id": "22050",
    "name": "ë¶êµ¬",
    "nameEn": "Buk-gu",
    "baseYear": "2012",
    "groupId": "ëŒ€êµ¬ê´‘ì—­ì‹œ",
    "groupName": "ëŒ€êµ¬ê´‘ì—­ì‹œ",
    "placeName": "ëŒ€êµ¬ì˜¤í˜ë¼í•˜ìš°ìŠ¤",
    "type": "ğŸµ"
  },
  {
    "id": "22040",
    "name": "ë‚¨êµ¬",
    "nameEn": "Nam-gu",
    "baseYear": "2012",
    "groupId": "ëŒ€êµ¬ê´‘ì—­ì‹œ",
    "groupName": "ëŒ€êµ¬ê´‘ì—­ì‹œ",
    "placeName": "í™”ì›ìœ ì›ì§€",
    "type": "ğŸŒ³"
  },
  {
    "id": "22030",
    "name": "ì„œêµ¬",
    "nameEn": "Seo-gu",
    "baseYear": "2012",
    "groupId": "ëŒ€êµ¬ê´‘ì—­ì‹œ",
    "groupName": "ëŒ€êµ¬ê´‘ì—­ì‹œ",
    "placeName": "ìŠ¤íŒŒí¬ëœë“œ",
    "type": "ğŸ¡"
  },
  {
    "id": "22020",
    "name": "ë™êµ¬",
    "nameEn": "Dong-gu",
    "baseYear": "2012",
    "groupId": "ëŒ€êµ¬ê´‘ì—­ì‹œ",
    "groupName": "ëŒ€êµ¬ê´‘ì—­ì‹œ",
    "placeName": "íŒ”ê³µì‚°ì¼€ì´ë¸”ì¹´",
    "type": "ğŸš "
  },
  {
    "id": "22010",
    "name": "ì¤‘êµ¬",
    "nameEn": "Jung-gu",
    "baseYear": "2012",
    "groupId": "ëŒ€êµ¬ê´‘ì—­ì‹œ",
    "groupName": "ëŒ€êµ¬ê´‘ì—­ì‹œ",
    "placeName": "ë‹¬ì„±ê³µì›",
    "type": "ğŸŒ³"
  },
  {
    "id": "21310",
    "name": "ê¸°ì¥êµ°",
    "nameEn": "Gijang-gun",
    "baseYear": "2012",
    "groupId": "ë¶€ì‚°ê´‘ì—­ì‹œ",
    "groupName": "ë¶€ì‚°ê´‘ì—­ì‹œ",
    "placeName": "í•´ë™ìš©ê¶ì‚¬",
    "type": "ğŸ›"
  },
  {
    "id": "21150",
    "name": "ì‚¬ìƒêµ¬",
    "nameEn": "Sasang-gu",
    "baseYear": "2012",
    "groupId": "ë¶€ì‚°ê´‘ì—­ì‹œ",
    "groupName": "ë¶€ì‚°ê´‘ì—­ì‹œ",
    "placeName": "ì‚¼ë½ìƒíƒœê³µì›",
    "type": "ğŸŒ³"
  },
  {
    "id": "21140",
    "name": "ìˆ˜ì˜êµ¬",
    "nameEn": "Suyeong-gu",
    "baseYear": "2012",
    "groupId": "ë¶€ì‚°ê´‘ì—­ì‹œ",
    "groupName": "ë¶€ì‚°ê´‘ì—­ì‹œ",
    "placeName": "ê´‘ì•ˆë¦¬ í•´ìˆ˜ìš•ì¥",
    "type": "ğŸ–"
  },
  {
    "id": "21130",
    "name": "ì—°ì œêµ¬",
    "nameEn": "Yeonje-gu",
    "baseYear": "2012",
    "groupId": "ë¶€ì‚°ê´‘ì—­ì‹œ",
    "groupName": "ë¶€ì‚°ê´‘ì—­ì‹œ",
    "placeName": "ì˜¨ì²œì²œ",
    "type": "ğŸ"
  },
  {
    "id": "21120",
    "name": "ê°•ì„œêµ¬",
    "nameEn": "Gangseo-gu",
    "baseYear": "2012",
    "groupId": "ë¶€ì‚°ê´‘ì—­ì‹œ",
    "groupName": "ë¶€ì‚°ê´‘ì—­ì‹œ",
    "placeName": "ê°€ë•ë„",
    "type": "ğŸ"
  },
  {
    "id": "21110",
    "name": "ê¸ˆì •êµ¬",
    "nameEn": "Geumjeong-gu",
    "baseYear": "2012",
    "groupId": "ë¶€ì‚°ê´‘ì—­ì‹œ",
    "groupName": "ë¶€ì‚°ê´‘ì—­ì‹œ",
    "placeName": "ë²”ì–´ì‚¬",
    "type": "ğŸ›"
  },
  {
    "id": "21100",
    "name": "ì‚¬í•˜êµ¬",
    "nameEn": "Saha-gu",
    "baseYear": "2012",
    "groupId": "ë¶€ì‚°ê´‘ì—­ì‹œ",
    "groupName": "ë¶€ì‚°ê´‘ì—­ì‹œ",
    "placeName": "ê°ì²œë¬¸í™”ë§ˆì„",
    "type": "ğŸ¡ "
  },
  {
    "id": "21080",
    "name": "ë¶êµ¬",
    "nameEn": "Buk-gu",
    "baseYear": "2012",
    "groupId": "ë¶€ì‚°ê´‘ì—­ì‹œ",
    "groupName": "ë¶€ì‚°ê´‘ì—­ì‹œ",
    "placeName": "í™”ëª…ìˆ˜ëª©ì›",
    "type": "ğŸŒ¿"
  },
  {
    "id": "21070",
    "name": "ë‚¨êµ¬",
    "nameEn": "Nam-gu",
    "baseYear": "2012",
    "groupId": "ë¶€ì‚°ê´‘ì—­ì‹œ",
    "groupName": "ë¶€ì‚°ê´‘ì—­ì‹œ",
    "placeName": "ì˜¤ë¥™ë„",
    "type": "ğŸ"
  },
  {
    "id": "21060",
    "name": "ë™ë˜êµ¬",
    "nameEn": "Dongnae-gu",
    "baseYear": "2012",
    "groupId": "ë¶€ì‚°ê´‘ì—­ì‹œ",
    "groupName": "ë¶€ì‚°ê´‘ì—­ì‹œ",
    "placeName": "ë§Œë•ê³ ê°œ",
    "type": "ğŸŒ†"
  },
  {
    "id": "21050",
    "name": "ë¶€ì‚°ì§„êµ¬",
    "nameEn": "Busanjin-gu",
    "baseYear": "2012",
    "groupId": "ë¶€ì‚°ê´‘ì—­ì‹œ",
    "groupName": "ë¶€ì‚°ê´‘ì—­ì‹œ",
    "placeName": "ë¶€ì‚°ì‹œë¯¼ê³µì›",
    "type": "ğŸ"
  },
  {
    "id": "21040",
    "name": "ì˜ë„êµ¬",
    "nameEn": "Yeongdo-gu",
    "baseYear": "2012",
    "groupId": "ë¶€ì‚°ê´‘ì—­ì‹œ",
    "groupName": "ë¶€ì‚°ê´‘ì—­ì‹œ",
    "placeName": "íƒœì¢…ëŒ€",
    "type": "ğŸ"
  },
  {
    "id": "21030",
    "name": "ë™êµ¬",
    "nameEn": "Dong-gu",
    "baseYear": "2012",
    "groupId": "ë¶€ì‚°ê´‘ì—­ì‹œ",
    "groupName": "ë¶€ì‚°ê´‘ì—­ì‹œ",
    "placeName": "168ê³„ë‹¨",
    "type": "ğŸ"
  },
  {
    "id": "21020",
    "name": "ì„œêµ¬",
    "nameEn": "Seo-gu",
    "baseYear": "2012",
    "groupId": "ë¶€ì‚°ê´‘ì—­ì‹œ",
    "groupName": "ë¶€ì‚°ê´‘ì—­ì‹œ",
    "placeName": "ì†¡ë„í•´ìˆ˜ìš•ì¥",
    "type": "ğŸ–"
  },
  {
    "id": "21010",
    "name": "ì¤‘êµ¬",
    "nameEn": "Jung-gu",
    "baseYear": "2012",
    "groupId": "ì„œìš¸íŠ¹ë³„ì‹œ",
    "groupName": "ì„œìš¸íŠ¹ë³„ì‹œ",
    "placeName": "ì²­ê³„ì²œ",
    "type": "ğŸ"
  },
  {
    "id": "11250",
    "name": "ê°•ë™êµ¬",
    "nameEn": "Gangdong-gu",
    "baseYear": "2012",
    "groupId": "ì„œìš¸íŠ¹ë³„ì‹œ",
    "groupName": "ì„œìš¸íŠ¹ë³„ì‹œ",
    "placeName": "ì•”ì‚¬ë™ ìœ ì ",
    "type": "ğŸ"
  },
  {
    "id": "11230",
    "name": "ê°•ë‚¨êµ¬",
    "nameEn": "Gangnam-gu",
    "baseYear": "2012",
    "groupId": "ì„œìš¸íŠ¹ë³„ì‹œ",
    "groupName": "ì„œìš¸íŠ¹ë³„ì‹œ",
    "placeName": "ê°€ë¡œìˆ˜ê¸¸",
    "type": "ğŸŒ³"
  },
  {
    "id": "11220",
    "name": "ì„œì´ˆêµ¬",
    "nameEn": "Seocho-gu",
    "baseYear": "2012",
    "groupId": "ì„œìš¸íŠ¹ë³„ì‹œ",
    "groupName": "ì„œìš¸íŠ¹ë³„ì‹œ",
    "placeName": "ì˜ˆìˆ ì˜ì „ë‹¹",
    "type": "ğŸ¶"
  },
  {
    "id": "11210",
    "name": "ê´€ì•…êµ¬",
    "nameEn": "Gwanak-gu",
    "baseYear": "2012",
    "groupId": "ì„œìš¸íŠ¹ë³„ì‹œ",
    "groupName": "ì„œìš¸íŠ¹ë³„ì‹œ",
    "placeName": "ì„œìš¸ëŒ€í•™êµ",
    "type": "ğŸ«"
  },
  {
    "id": "11200",
    "name": "ë™ì‘êµ¬",
    "nameEn": "Dongjak-gu",
    "baseYear": "2012",
    "groupId": "ì„œìš¸íŠ¹ë³„ì‹œ",
    "groupName": "ì„œìš¸íŠ¹ë³„ì‹œ",
    "placeName": "ë³´ë¼ë§¤ê³µì›",
    "type": "ğŸŒ³"
  },
  {
    "id": "11190",
    "name": "ì˜ë“±í¬êµ¬",
    "nameEn": "Yeongdeungpo-gu",
    "baseYear": "2012",
    "groupId": "ì„œìš¸íŠ¹ë³„ì‹œ",
    "groupName": "ì„œìš¸íŠ¹ë³„ì‹œ",
    "placeName": "ì—¬ì˜ë„ í•œê°•ê³µì›",
    "type": "ğŸ"
  },
  {
    "id": "11180",
    "name": "ê¸ˆì²œêµ¬",
    "nameEn": "Geumcheon-gu",
    "baseYear": "2012",
    "groupId": "ì„œìš¸íŠ¹ë³„ì‹œ",
    "groupName": "ì„œìš¸íŠ¹ë³„ì‹œ",
    "placeName": "í˜¸ì•”ëŠ˜ì†”ê¸¸",
    "type": "ğŸŒ³"
  },
  {
    "id": "11170",
    "name": "êµ¬ë¡œêµ¬",
    "nameEn": "Guro-gu",
    "baseYear": "2012",
    "groupId": "ì„œìš¸íŠ¹ë³„ì‹œ",
    "groupName": "ì„œìš¸íŠ¹ë³„ì‹œ",
    "placeName": "í‘¸ë¥¸ìˆ˜ëª©ì›",
    "type": "ğŸŒ³"
  },
  {
    "id": "11160",
    "name": "ê°•ì„œêµ¬",
    "nameEn": "Gangseo-gu",
    "baseYear": "2012",
    "groupId": "ì„œìš¸íŠ¹ë³„ì‹œ",
    "groupName": "ì„œìš¸íŠ¹ë³„ì‹œ",
    "placeName": "ì„œìš¸ì‹ë¬¼ì›",
    "type": "ğŸŒ¼"
  },
  {
    "id": "11150",
    "name": "ì–‘ì²œêµ¬",
    "nameEn": "Yangcheon-gu",
    "baseYear": "2012",
    "groupId": "ì„œìš¸íŠ¹ë³„ì‹œ",
    "groupName": "ì„œìš¸íŠ¹ë³„ì‹œ",
    "placeName": "ì„œì„œìš¸í˜¸ìˆ˜ê³µì›",
    "type": "ğŸ"
  },
  {
    "id": "11140",
    "name": "ë§ˆí¬êµ¬",
    "nameEn": "Mapo-gu",
    "baseYear": "2012",
    "groupId": "ì„œìš¸íŠ¹ë³„ì‹œ",
    "groupName": "ì„œìš¸íŠ¹ë³„ì‹œ",
    "placeName": "ê²½ì˜ì„ ìˆ²ê¸¸",
    "type": "ğŸ¡"
  },
  {
    "id": "11130",
    "name": "ì„œëŒ€ë¬¸êµ¬",
    "nameEn": "Seodaemun-gu",
    "baseYear": "2012",
    "groupId": "ì„œìš¸íŠ¹ë³„ì‹œ",
    "groupName": "ì„œìš¸íŠ¹ë³„ì‹œ",
    "placeName": "ë…ë¦½ë¬¸",
    "type": "ğŸ›"
  },
  {
    "id": "11120",
    "name": "ì€í‰êµ¬",
    "nameEn": "Eunpyeong-gu",
    "baseYear": "2012",
    "groupId": "ì„œìš¸íŠ¹ë³„ì‹œ",
    "groupName": "ì„œìš¸íŠ¹ë³„ì‹œ",
    "placeName": "ë¶í•œì‚°",
    "type": "â›°"
  },
  {
    "id": "11110",
    "name": "ë…¸ì›êµ¬",
    "nameEn": "Nowon-gu",
    "baseYear": "2012",
    "groupId": "ì„œìš¸íŠ¹ë³„ì‹œ",
    "groupName": "ì„œìš¸íŠ¹ë³„ì‹œ",
    "placeName": "ê²½ì¶˜ì„ ìˆ²ê¸¸",
    "type": "ğŸŒ³"
  },
  {
    "id": "11100",
    "name": "ë„ë´‰êµ¬",
    "nameEn": "Dobong-gu",
    "baseYear": "2012",
    "groupId": "ì„œìš¸íŠ¹ë³„ì‹œ",
    "groupName": "ì„œìš¸íŠ¹ë³„ì‹œ",
    "placeName": "ë„ë´‰ì‚°",
    "type": "â›°"
  },
  {
    "id": "11090",
    "name": "ê°•ë¶êµ¬",
    "nameEn": "Gangbuk-gu",
    "baseYear": "2012",
    "groupId": "ì„œìš¸íŠ¹ë³„ì‹œ",
    "groupName": "ì„œìš¸íŠ¹ë³„ì‹œ",
    "placeName": "ìš°ì´ë™ ë¨¹ê±°ë¦¬ë§ˆì„",
    "type": "ğŸ¡"
  },
  {
    "id": "11080",
    "name": "ì„±ë¶êµ¬",
    "nameEn": "Seongbuk-gu",
    "baseYear": "2012",
    "groupId": "ì„œìš¸íŠ¹ë³„ì‹œ",
    "groupName": "ì„œìš¸íŠ¹ë³„ì‹œ",
    "placeName": "ì›”ê³¡ì‚°",
    "type": "â›°"
  },
  {
    "id": "11070",
    "name": "ì¤‘ë‘êµ¬",
    "nameEn": "Jungnang-gu",
    "baseYear": "2012",
    "groupId": "ì„œìš¸íŠ¹ë³„ì‹œ",
    "groupName": "ì„œìš¸íŠ¹ë³„ì‹œ",
    "placeName": "ìš©ë§ˆì‚°",
    "type": "ğŸŒ„"
  },
  {
    "id": "11060",
    "name": "ë™ëŒ€ë¬¸êµ¬",
    "nameEn": "Dongdaemun-gu",
    "baseYear": "2012",
    "groupId": "ì„œìš¸íŠ¹ë³„ì‹œ",
    "groupName": "ì„œìš¸íŠ¹ë³„ì‹œ",
    "placeName": "í™ë¦‰ìˆ²",
    "type": "ğŸŒ³"
  },
  {
    "id": "11050",
    "name": "ê´‘ì§„êµ¬",
    "nameEn": "Gwangjin-gu",
    "baseYear": "2012",
    "groupId": "ì„œìš¸íŠ¹ë³„ì‹œ",
    "groupName": "ì„œìš¸íŠ¹ë³„ì‹œ",
    "placeName": "ì–´ë¦°ì´ëŒ€ê³µì›",
    "type": "ğŸ "
  },
  {
    "id": "11040",
    "name": "ì„±ë™êµ¬",
    "nameEn": "Seongdong-gu",
    "baseYear": "2012",
    "groupId": "ì„œìš¸íŠ¹ë³„ì‹œ",
    "groupName": "ì„œìš¸íŠ¹ë³„ì‹œ",
    "placeName": "ì„œìš¸ìˆ²",
    "type": "ğŸŒ³"
  },
  {
    "id": "11030",
    "name": "ìš©ì‚°êµ¬",
    "nameEn": "Yongsan-gu",
    "baseYear": "2012",
    "groupId": "ì„œìš¸íŠ¹ë³„ì‹œ",
    "groupName": "ì„œìš¸íŠ¹ë³„ì‹œ",
    "placeName": "ë‚¨ì‚°",
    "type": "â›°"
  },
  {
    "id": "11020",
    "name": "ì¤‘êµ¬",
    "nameEn": "Jung-gu",
    "baseYear": "2012",
    "groupId": "ì„œìš¸íŠ¹ë³„ì‹œ",
    "groupName": "ì„œìš¸íŠ¹ë³„ì‹œ",
    "placeName": "ë•ìˆ˜ê¶",
    "type": "ğŸ›"
  },
  {
    "id": "11010",
    "name": "ì¢…ë¡œêµ¬",
    "nameEn": "Jongno-gu",
    "baseYear": "2012",
    "groupId": "ì„œìš¸íŠ¹ë³„ì‹œ",
    "groupName": "ì„œìš¸íŠ¹ë³„ì‹œ",
    "placeName": "ê²½ë³µê¶",
    "type": "ğŸ"
  }
]
